IRIDIUM 64 [+]          
1 25287U 98021C   17134.52820627  .00000170  00000-0  53475-4 0  9998
2 25287  86.3990 237.9965 0002217  92.3312 267.8138 14.34221130   178
IRIDIUM 65 [+]          
1 25288U 98021D   17134.39501909  .00000159  00000-0  49783-4 0  9997
2 25288  86.3988 237.9563 0002488  96.3696 263.7783 14.34220900   174
IRIDIUM 66 [+]          
1 25289U 98021E   17134.26181510  .00000171  00000-0  54048-4 0  9990
2 25289  86.3988 237.9155 0002386  98.0219 262.1247 14.34221250   143
IRIDIUM 67 [+]          
1 25290U 98021F   17134.26816498  .00000167  00000-0  52618-4 0  9998
2 25290  86.3988 238.0486 0002353  96.9068 263.2396 14.34220983   168
IRIDIUM 68 [+]          
1 25291U 98021G   17134.27449457  .00000168  00000-0  52876-4 0  9994
2 25291  86.3990 238.1640 0002352  95.7393 264.4071 14.34216932   142
IRIDIUM 69 [-]          
1 25319U 98026A   17134.30900261  .00000094  00000-0  24074-4 0  9996
2 25319  86.3998 259.9482 0003420  64.1193 296.0358 14.38666052998164
IRIDIUM 71 [-]          
1 25320U 98026B   17134.44811611  .00000091  00000-0  22918-4 0  9995
2 25320  86.3985 255.7949 0004302  95.1505 265.0185 14.39081187998610
IRIDIUM 70 [+]          
1 25342U 98032A   17134.45084943  .00000164  00000-0  51466-4 0  9998
2 25342  86.3995 238.3307 0002430  98.5647 320.6748 14.34221318994261
IRIDIUM 72 [+]          
1 25343U 98032B   17134.28716377  .00000046  00000-0  92296-5 0  9999
2 25343  86.3988 238.0128 0002362  98.1121 262.0343 14.34219235994242
IRIDIUM 73 [-]          
1 25344U 98032C   17134.51299006  .00000117  00000-0  25573-4 0  9993
2 25344  86.4471 217.1557 0002555 108.8391 251.3091 14.49032469  2673
IRIDIUM 74 [S]          
1 25345U 98032D   17134.51524509  .00000180  00000-0  48258-4 0  9998
2 25345  86.4504 238.3493 0008380 131.8250 285.7833 14.42449772997880
IRIDIUM 75 [+]          
1 25346U 98032E   17134.29350943  .00000167  00000-0  52578-4 0  9998
2 25346  86.3991 238.2614 0002345  97.1183 263.0280 14.34219352994813
IRIDIUM 3 [+]           
1 25431U 98048A   17134.58164199  .00000098  00000-0  27887-4 0  9996
2 25431  86.3953 269.7370 0002392  96.5727  31.0832 14.34214652980520
IRIDIUM 76 [+]          
1 25432U 98048B   17134.37247043  .00000094  00000-0  26464-4 0  9990
2 25432  86.3951 269.5796 0002227  98.9125 291.2324 14.34215745980759
IRIDIUM 82 [+]          
1 25467U 98051A   17134.13876836  .00000535  00000-0  37859-4 0  9994
2 25467  86.4039  36.0422 0184567 151.7041 209.4365 14.89178919981782
IRIDIUM 81 [+]          
1 25468U 98051B   17134.57973300  .00000182  00000-0  52993-4 0  9991
2 25468  86.4267  35.8356 0001880  90.1893 269.9520 14.38617615977993
IRIDIUM 80 [+]          
1 25469U 98051C   17134.21994748  .00000160  00000-0  50255-4 0  9997
2 25469  86.3999  36.2882 0002646  69.1815  85.4455 14.34210874977962
IRIDIUM 77 [+]          
1 25471U 98051E   17134.19918174  .00000195  00000-0  57105-4 0  9995
2 25471  86.4257  35.8494 0002433  92.9064  63.0668 14.38638228983169
IRIDIUM 2 [-]           
1 25527U 98066A   17134.46984482  .00000688  00000-0  33428-4 0  9997
2 25527  85.5327  52.1543 0007973 200.4088 159.6835 15.16456918 12760
IRIDIUM 86 [+]          
1 25528U 98066B   17134.62426086  .00000110  00000-0  32170-4 0  9990
2 25528  86.3966   3.8406 0002312  88.3507 271.7954 14.34217381974315
IRIDIUM 84 [+]          
1 25530U 98066D   17134.58620754  .00000118  00000-0  35197-4 0  9996
2 25530  86.3969   4.0208 0002120  87.1327 273.0111 14.34217715972115
IRIDIUM 83 [+]          
1 25531U 98066E   17134.61792143  .00000111  00000-0  32601-4 0  9993
2 25531  86.3972   4.1315 0002091  85.7267 274.4168 14.34217734969253
IRIDIUM 20 [+]          
1 25577U 98074A   17134.32862038  .00000100  00000-0  28562-4 0  9990
2 25577  86.3949 269.5195 0002287  94.9099 265.2358 14.34214638963581
IRIDIUM 11 [+]          
1 25578U 98074B   17134.42618514  .00000095  00000-0  26882-4 0  9996
2 25578  86.3948 269.6808 0002303  92.9538 345.0991 14.34215385972566
IRIDIUM 14 [+]          
1 25777U 99032A   17134.45210821  .00000161  00000-0  50443-4 0  9998
2 25777  86.3991 238.0267 0002465  97.2639 262.8837 14.34220679949845
IRIDIUM 21 [+]          
1 25778U 99032B   17134.28082710  .00000166  00000-0  52288-4 0  9998
2 25778  86.3989 238.1173 0002211  98.6157 261.5289 14.34219147943253
IRIDIUM 91 [+]          
1 27372U 02005A   17134.61164068 -.00000049  00000-0 -24533-4 0  9992
2 27372  86.3927 301.2028 0002240 102.0340 326.7110 14.34214620806766
IRIDIUM 90 [S]          
1 27373U 02005B   17134.62707739  .00000117  00000-0  29118-4 0  9990
2 27373  86.4483   4.1110 0002262  89.2696 270.8764 14.42967663806440
IRIDIUM 94 [+]          
1 27374U 02005C   17134.36583505  .00000091  00000-0  25368-4 0  9999
2 27374  86.3950 269.8353 0002506 112.7037 275.9089 14.34215941811101
IRIDIUM 95 [+]          
1 27375U 02005D   17134.42709976 -.00000054  00000-0 -26359-4 0  9991
2 27375  86.3695 301.3301 0002104  91.9540 268.1897 14.34214352806070
IRIDIUM 96 [+]          
1 27376U 02005E   17134.54466713 -.00000064  00000-0 -29896-4 0  9994
2 27376  86.3970 333.2784 0000980 106.6165 253.5138 14.34221501211950
IRIDIUM 97 [+]          
1 27450U 02031A   17134.51297421 -.00000055  00000-0 -26826-4 0  9991
2 27450  86.3939 332.9803 0002029  78.8078 281.3346 14.34220605785405
IRIDIUM 98 [+]          
1 27451U 02031B   17134.41577284  .00000156  00000-0  48641-4 0  9998
2 27451  86.3990  36.3076 0002749  83.3430 328.8922 14.34211199786464
